NORAD_CAT_ID,OBJECT_NAME,OBJECT_TYPE,EPOCH,MEAN_MOTION,ECCENTRICITY,INCLINATION,RA_OF_ASC_NODE,ARG_OF_PERICENTER,MEAN_ANOMALY,BSTAR,MEAN_MOTION_DOT,MEAN_MOTION_DDOT,TLE_LINE0,TLE_LINE1,TLE_LINE2,SEMIMAJOR_AXIS,PERIOD,APOGEE,PERIGEE,DECAYED
51140.0,STARLINK-3175,PAYLOAD,2023-01-16 12:21:18,15.08883561,0.0001817,53.2173,53.4822,78.257,281.8626,0.0013874,0.00021888,0.0,0 STARLINK-3175,1 51140U 22005AN  23016.51479193  .00021888  00000-0  13874-2 0  9993,2 51140  53.2173  53.4822 0001817  78.2570 281.8626 15.08883561 55406,6917.746999999999,95.435,540.869,538.355,0.0
51140.0,STARLINK-3175,PAYLOAD,2023-01-17 02:39:47,15.08817776,0.0001756,53.2159,50.8068,92.9316,267.1877,-0.00039602,-6.581e-05,0.0,0 STARLINK-3175,1 51140U 22005AN  23017.11096777 -.00006581  00000-0 -39602-3 0  9996,2 51140  53.2159  50.8068 0001756  92.9316 267.1877 15.08817776 56609,6917.948,95.439,541.028,538.599,0.0
51140.0,STARLINK-3175,PAYLOAD,2023-01-17 12:12:07,15.08818477,0.0001813,53.2161,49.0227,96.39,263.7298,0.00045395,6.94e-05,0.0,0 STARLINK-3175,1 51140U 22005AN  23017.50841639  .00006940  00000-0  45395-3 0  9997,2 51140  53.2161  49.0227 0001813  96.3900 263.7298 15.08818477 55551,6917.946,95.439,541.065,538.557,0.0
51140.0,STARLINK-3175,PAYLOAD,2023-01-17 18:33:40,15.08828533,0.0001714,53.2165,47.8332,98.0042,262.1145,0.0010611,0.00016634,0.0,0 STARLINK-3175,1 51140U 22005AN  23017.77337967  .00016634  00000-0  10611-2 0  9993,2 51140  53.2165  47.8332 0001714  98.0042 262.1145 15.08828533 56700,6917.915,95.438,540.966,538.595,0.0
51140.0,STARLINK-3175,PAYLOAD,2023-01-18 10:27:30,15.08875033,0.0001705,53.2162,44.8606,100.4134,259.7051,0.0022329999999999,0.00035464,0.0,0 STARLINK-3175,1 51140U 22005AN  23018.43577506  .00035464  00000-0  22330-2 0  9995,2 51140  53.2162  44.8606 0001705 100.4134 259.7051 15.08875033 56804,6917.773,95.435,540.818,538.4590000000001,0.0
51140.0,STARLINK-3175,PAYLOAD,2023-01-18 18:24:26,15.0886652,0.0001996999999999,53.2168,43.3732,92.4511,267.671,0.0014689,0.00023184,0.0,0 STARLINK-3175,1 51140U 22005AN  23018.76697478  .00023184  00000-0  14689-2 0  9996,2 51140  53.2168  43.3732 0001997  92.4511 267.6710 15.08866520 56852,6917.799,95.436,541.0459999999999,538.283,0.0
51140.0,STARLINK-3175,PAYLOAD,2023-01-19 00:45:58,15.08860543,0.0002243,53.2172,42.1853,97.034,263.0907,0.00074675,0.00011623,0.0,0 STARLINK-3175,1 51140U 22005AN  23019.03193275  .00011623  00000-0  74675-3 0  9990,2 51140  53.2172  42.1853 0002243  97.0340 263.0907 15.08860543 56895,6917.818,95.436,541.234,538.131,0.0
51140.0,STARLINK-3175,PAYLOAD,2023-01-19 10:18:17,15.08862066,0.0001659,53.2162,40.4003,91.9641,268.1541,0.00052666,8.109e-05,0.0,0 STARLINK-3175,1 51140U 22005AN  23019.42936783  .00008109  00000-0  52666-3 0  9993,2 51140  53.2162  40.4003 0001659  91.9641 268.1541 15.08862066 55845,6917.813,95.436,540.826,538.53,0.0
51140.0,STARLINK-3175,PAYLOAD,2023-01-19 18:15:12,15.08853088,0.0001653,53.2164,38.9118,82.1981,277.9198,0.00035984,5.445e-05,0.0,0 STARLINK-3175,1 51140U 22005AN  23019.76056696  .00005445  00000-0  35984-3 0  9990,2 51140  53.2164  38.9118 0001653  82.1981 277.9198 15.08853088 57009,6917.84,95.437,540.849,538.562,0.0
51140.0,STARLINK-3175,PAYLOAD,2023-01-20 02:12:08,15.08836619,0.000122,53.2151,37.426,90.1052,270.008,-0.00012535,-2.282e-05,0.0,0 STARLINK-3175,1 51140U 22005AN  23020.09176995 -.00002282  00000-0 -12535-3 0  9998,2 51140  53.2151  37.4260 0001220  90.1052 270.0080 15.08836619 57055,6917.891,95.438,540.6,538.9119999999999,0.0
51140.0,STARLINK-3175,PAYLOAD,2023-01-20 08:33:41,15.08842926,0.0001556,53.2155,36.2365,86.5541,273.563,0.00040864,6.222e-05,0.0,0 STARLINK-3175,1 51140U 22005AN  23020.35673057  .00006222  00000-0  40864-3 0  9990,2 51140  53.2155  36.2365 0001556  86.5541 273.5630 15.08842926 55983,6917.871,95.437,540.813,538.66,0.0
51140.0,STARLINK-3175,PAYLOAD,2023-01-21 00:27:33,15.08835656,0.0001786999999999,53.2154,33.264,73.2735,286.8453,0.00039177,5.952e-05,0.0,0 STARLINK-3175,1 51140U 22005AN  23021.01913709  .00005952  00000-0  39177-3 0  9999,2 51140  53.2154  33.2640 0001787  73.2735 286.8453 15.08835656 57196,6917.894,95.438,540.995,538.5219999999999,0.0
51140.0,STARLINK-3175,PAYLOAD,2023-01-21 08:24:28,15.0884929,0.0001629,53.2152,31.7758,79.3583,280.7592,0.00068479,0.0001063,0.0,0 STARLINK-3175,1 51140U 22005AN  23021.35033422  .00010630  00000-0  68479-3 0  9997,2 51140  53.2152  31.7758 0001629  79.3583 280.7592 15.08849290 57242,6917.852,95.437,540.844,538.59,0.0
51140.0,STARLINK-3175,PAYLOAD,2023-01-22 09:50:38,15.08863969,0.0001543,53.2168,27.0142,88.291,271.8259,0.00069552,0.00010806,0.0,0 STARLINK-3175,1 51140U 22005AN  23022.41016622  .00010806  00000-0  69552-3 0  9996,2 51140  53.2168  27.0142 0001543  88.2910 271.8259 15.08863969 57400,6917.807,95.436,540.74,538.605,0.0
51140.0,STARLINK-3175,PAYLOAD,2023-01-23 06:30:39,15.08840435,0.0001184,53.2157,23.1516,86.8188,273.29400000000004,0.00021667,3.162e-05,0.0,0 STARLINK-3175,1 51140U 22005AN  23023.27129292  .00003162  00000-0  21667-3 0  9991,2 51140  53.2157  23.1516 0001184  86.8188 273.2940 15.08840435 57532,6917.879,95.438,540.563,538.925,0.0
51140.0,STARLINK-3175,PAYLOAD,2023-01-24 04:46:04,15.08837016,0.0001515,53.216,18.9856,98.6025,261.5139,0.00018246,2.617e-05,0.0,0 STARLINK-3175,1 51140U 22005AN  23024.19866007  .00002617  00000-0  18246-3 0  9998,2 51140  53.2160  18.9856 0001515  98.6025 261.5139 15.08837016 57670,6917.89,95.438,540.803,538.706,0.0
51140.0,STARLINK-3175,PAYLOAD,2023-01-25 07:47:37,15.08848035,0.0001274,53.2164,13.9319,88.6801,271.4337,0.00037601,5.703e-05,0.0,0 STARLINK-3175,1 51140U 22005AN  23025.32473950  .00005703  00000-0  37601-3 0  9990,2 51140  53.2164  13.9319 0001274  88.6801 271.4337 15.08848035 57848,6917.856,95.437,540.602,538.839,0.0
51140.0,STARLINK-3175,PAYLOAD,2023-01-25 15:44:33,15.08840653,0.0001238,53.2168,12.4459,90.00299999999999,270.1104,0.00022088,3.229e-05,0.0,0 STARLINK-3175,1 51140U 22005AN  23025.65594184  .00003229  00000-0  22088-3 0  9993,2 51140  53.2168  12.4459 0001238  90.0030 270.1104 15.08840653 57893,6917.878000000001,95.438,540.6,538.887,0.0
51140.0,STARLINK-3175,PAYLOAD,2023-01-26 09:13:47,15.08857499,0.0001457,53.2177,9.1759,101.5985,258.5171,0.00040933,6.236e-05,0.0,0 STARLINK-3175,1 51140U 22005AN  23026.38457629  .00006236  00000-0  40933-3 0  9996,2 51140  53.2177   9.1759 0001457 101.5985 258.5171 15.08857499 58003,6917.826999999999,95.436,540.7,538.684,0.0
51140.0,STARLINK-3175,PAYLOAD,2023-01-27 02:43:01,15.08872747,0.0001771,53.2175,5.9057,146.2069,213.9036,0.00090285,0.00014123,0.0,0 STARLINK-3175,1 51140U 22005AN  23027.11321466  .00014123  00000-0  90285-3 0  9996,2 51140  53.2175   5.9057 0001771 146.2069 213.9036 15.08872747 58114,6917.78,95.435,540.87,538.42,0.0
51140.0,STARLINK-3175,PAYLOAD,2023-01-27 09:04:34,15.08848051,0.0001094999999999,53.2165,4.7141,94.3934,265.7183,0.00044731,6.840000000000001e-05,0.0,0 STARLINK-3175,1 51140U 22005AN  23027.37818099  .00006840  00000-0  44731-3 0  9999,2 51140  53.2165   4.7141 0001095  94.3934 265.7183 15.08848051 58150,6917.856,95.437,540.4780000000001,538.9630000000001,0.0
51140.0,STARLINK-3175,PAYLOAD,2023-01-28 02:33:49,15.08842443,0.0001044,53.2164,1.4398,107.2419,252.8687,9.1458e-05,1.168e-05,0.0,0 STARLINK-3175,1 51140U 22005AN  23028.10682577  .00001168  00000-0  91458-4 0  9998,2 51140  53.2164   1.4398 0001044 107.2419 252.8687 15.08842443 58260,6917.8730000000005,95.437,540.46,539.016,0.0
51140.0,STARLINK-3175,PAYLOAD,2023-01-28 07:19:59,15.0884582,0.0001012,53.2162,0.5486,108.8951,251.2151,0.00019965,2.892e-05,0.0,0 STARLINK-3175,1 51140U 22005AN  23028.30554430  .00002892  00000-0  19965-3 0  9993,2 51140  53.2162   0.5486 0001012 108.8951 251.2151 15.08845820 57180,6917.863,95.437,540.428,539.028,0.0
51140.0,STARLINK-3175,PAYLOAD,2023-01-28 21:38:27,15.08838923,0.0001063,53.2162,357.8768,83.7784,276.3329,0.0001654,2.345e-05,0.0,0 STARLINK-3175,1 51140U 22005AN  23028.90170777  .00002345  00000-0  16540-3 0  9996,2 51140  53.2162 357.8768 0001063  83.7784 276.3329 15.08838923 57273,6917.884,95.438,540.484,539.013,0.0
51140.0,STARLINK-3175,PAYLOAD,2023-01-29 03:59:57,15.08875067,9.89e-05,53.2157,356.6863,94.8415,265.269,-0.0014265,-0.0002294,0.0,0 STARLINK-3175,1 51140U 22005AN  23029.16664258 -.00022940  00000-0 -14265-2 0  9993,2 51140  53.2157 356.6863 0000989  94.8415 265.2690 15.08875067 58426,6917.773,95.435,540.322,538.954,0.0
51140.0,STARLINK-3175,PAYLOAD,2023-01-29 07:10:44,15.08873967,7.94e-05,53.2163,356.0904,108.0444,252.0635,-0.0010277,-0.00016621,0.0,0 STARLINK-3175,1 51140U 22005AN  23029.29912180 -.00016621  00000-0 -10277-2 0  9995,2 51140  53.2163 356.0904 0000794 108.0444 252.0635 15.08873967 57336,6917.777,95.435,540.191,539.092,0.0
51140.0,STARLINK-3175,PAYLOAD,2023-01-30 07:01:33,15.08849387,0.0001451,53.2165,351.6296,85.6219,274.4939,0.00025966,3.848e-05,0.0,0 STARLINK-3175,1 51140U 22005AN  23030.29274411  .00003848  00000-0  25966-3 0  9992,2 51140  53.2165 351.6296 0001451  85.6219 274.4939 15.08849387 58597,6917.852,95.437,540.72,538.713,0.0
51140.0,STARLINK-3175,PAYLOAD,2023-01-30 21:20:01,15.08840544,0.0001285,53.2166,348.9548,85.3689,274.745,5.4895e-05,5.86e-06,0.0,0 STARLINK-3175,1 51140U 22005AN  23030.88890697  .00000586  00000-0  54895-4 0  9997,2 51140  53.2166 348.9548 0001285  85.3689 274.7450 15.08840544 57574,6917.879,95.438,540.633,538.855,0.0
51140.0,STARLINK-3175,PAYLOAD,2023-01-31 03:41:33,15.08847106,0.0001372,53.2168,347.7651,90.379,269.736,0.00014815,2.071e-05,0.0,0 STARLINK-3175,1 51140U 22005AN  23031.15386379  .00002071  00000-0  14815-3 0  9993,2 51140  53.2168 347.7651 0001372  90.3790 269.7360 15.08847106 58727,6917.859,95.437,540.673,538.775,0.0
